ERS-1                   
1 21574U 91050A   26087.04816073  .00000314  00000+0  11501-3 0  9994
2 21574  98.7867 105.7434 0032649 146.2502 214.0772 14.39462841818376
ARIANE 40 R/B           
1 21610U 91050F   26087.12478170  .00000287  00000+0  98248-4 0  9999
2 21610  98.1974 138.6661 0003585  39.4221 320.7230 14.42906561821650
INTERCOSMOS 25          
1 21819U 91086A   26087.06575421  .00001597  00000+0  30611-3 0  9993
2 21819  82.6015 298.8992 1486552  77.3398 298.9287 12.12060072498917
SL-8 R/B                
1 21876U 92008B   26087.21447503  .00000009  00000+0 -69489-5 0  9992
2 21876  82.9229 253.9941 0035871  83.3592  89.3729 13.75969555711962
SL-8 R/B                
1 21938U 92020B   26087.15761804  .00000034  00000+0  20073-4 0  9993
2 21938  82.9304 140.0497 0027744 244.7951 125.0510 13.75550530703673
USA 81                  
1 21949U 92023A   26087.17106303  .00000182  00000+0  59990-4 0  9991
2 21949  85.0048 120.7757 0001805  68.0080 292.1304 14.32373810 97433
COSMOS 2219             
1 22219U 92076A   26087.12509870 -.00000243  00000+0 -10279-3 0  9997
2 22219  71.0624 339.5339 0017950 180.0408 180.0716 14.14091030720988
SL-16 R/B               
1 22220U 92076B   26087.18482243 -.00000093  00000+0 -22291-4 0  9990
2 22220  70.9998 149.4172 0010682  61.7448 314.2125 14.16864005724452
COSMOS 2221             
1 22236U 92080A   26086.96144500  .00002454  00000+0  21456-3 0  9990
2 22236  82.5007 261.5731 0015446 128.0898 232.1720 14.96273973783523
SL-16 R/B               
1 22285U 92093B   26087.11372600  .00000217  00000+0  13550-3 0  9991
2 22285  71.0231 325.5916 0006475 275.7788  84.2596 14.15454171715765
COSMOS 2228             
1 22286U 92094A   26087.16608453  .00003115  00000+0  26596-3 0  9990
2 22286  82.5183 219.6193 0016801 237.2352 122.7253 14.97282792778825
SL-16 R/B               
1 22566U 93016B   26087.22665346 -.00000043  00000+0  24224-5 0  9993
2 22566  71.0077 176.2509 0012331 290.1918  69.7878 14.15305420704792
